[
    {
        "Altitude(m)": 617719.7457428203,
        "Argument of Periapsis(deg)": 0.0,
        "Eccentricity": 0.0,
        "Inclination(deg)": 60.0,
        "Latitude(deg)": -41.1025718834834,
        "Longitude(deg)": 170.0945442149124,
        "Mean Anomaly(deg)": 229.09090000000006,
        "RAAN(deg)": 60.0,
        "Satellite Name": "Test1 278",
        "Satellite Number": 278,
        "Semi-Major Axis(m)": 6980739.136638005,
        "Time(s)": 0
    },
    {
        "Altitude(m)": 617911.2819823872,
        "Argument of Periapsis(deg)": 0.00010418945913296404,
        "Eccentricity": 0.0,
        "Inclination(deg)": 60.0,
        "Latitude(deg)": -41.56576491308579,
        "Longitude(deg)": 170.59894854878777,
        "Mean Anomaly(deg)": 229.71100614546188,
        "RAAN(deg)": 59.99957995086026,
        "Satellite Name": "Test1 278",
        "Satellite Number": 278,
        "Semi-Major Axis(m)": 6980739.136638005,
        "Time(s)": 10
    }
]